NORAD_CAT_ID,OBJECT_NAME,OBJECT_TYPE,EPOCH,MEAN_MOTION,ECCENTRICITY,INCLINATION,RA_OF_ASC_NODE,ARG_OF_PERICENTER,MEAN_ANOMALY,BSTAR,MEAN_MOTION_DOT,MEAN_MOTION_DDOT,TLE_LINE0,TLE_LINE1,TLE_LINE2,SEMIMAJOR_AXIS,PERIOD,APOGEE,PERIGEE,DECAYED
53569.0,STARLINK-4582,PAYLOAD,2022-09-30 22:00:00,15.73235863,0.0004062999999999,53.2153,306.2377,3.5609,179.5666,0.0004164,0.00058335,0.0,0 STARLINK-4582,1 53569U 22101AU  22273.91667824  .00058335  00000-0  41640-3 0  9995,2 53569  53.2153 306.2377 0004063   3.5609 179.5666 15.73235863  1300,6727.793000000002,91.531,352.391,346.9240000000001,0.0
53569.0,STARLINK-4582,PAYLOAD,2022-10-01 14:00:01,15.73269977,0.0004258,53.2146,302.9405,0.1699,0.9334,-0.00053283,-0.00075009,0.0,0 STARLINK-4582,1 53569U 22101AU  22274.58334491 -.00075009  00000-0 -53283-3 0  9995,2 53569  53.2146 302.9405 0004258   0.1699   0.9334 15.73269977  1318,6727.696,91.529,352.425,346.696,0.0
53569.0,STARLINK-4582,PAYLOAD,2022-10-01 22:00:00,15.73195906,0.0003893,53.2149,301.2888,0.7542,89.3446,-0.00040428,-0.00056996,0.0,0 STARLINK-4582,1 53569U 22101AU  22274.91667824 -.00056996  00000-0 -40428-3 0  9992,2 53569  53.2149 301.2888 0003893   0.7542  89.3446 15.73195906  1309,6727.906999999997,91.533,352.391,347.153,0.0
53569.0,STARLINK-4582,PAYLOAD,2022-10-02 14:00:01,15.73115138,0.000426,53.2149,297.9918,8.2849,259.5599,0.00059561,0.00083531,0.0,0 STARLINK-4582,1 53569U 22101AU  22275.58334491  .00083531  00000-0  59561-3 0  9998,2 53569  53.2149 297.9918 0004260   8.2849 259.5599 15.73115138  1305,6728.137,91.538,352.86800000000005,347.136,0.0
53569.0,STARLINK-4582,PAYLOAD,2022-10-02 22:00:00,15.73156311,0.0004028,53.2149,296.3404,10.3294,346.3979,0.00090157,0.00127648,0.0,0 STARLINK-4582,1 53569U 22101AU  22275.91667824  .00127648  00000-0  90157-3 0  9998,2 53569  53.2149 296.3404 0004028  10.3294 346.3979 15.73156311  6960,6728.02,91.536,352.595,347.175,0.0
53569.0,STARLINK-4582,PAYLOAD,2022-10-03 14:00:01,15.73260026,0.0004213,53.2141,293.0434,7.2303,167.4176,-9.6142e-05,-0.00014138,0.0,0 STARLINK-4582,1 53569U 22101AU  22276.58334491 -.00014138  00000-0 -96142-4 0  9995,2 53569  53.2141 293.0434 0004213   7.2303 167.4176 15.73260026  7074,6727.724,91.53,352.423,346.755,0.0
53569.0,STARLINK-4582,PAYLOAD,2022-10-03 22:00:00,15.73216473,0.0003918,53.2142,291.3917,4.1975,259.4525,0.00015567,0.00021302,0.0,0 STARLINK-4582,1 53569U 22101AU  22276.91667824  .00021302  00000-0  15567-3 0  9991,2 53569  53.2142 291.3917 0003918   4.1975 259.4525 15.73216473  1301,6727.848000000001,91.532,352.349,347.077,0.0
53569.0,STARLINK-4582,PAYLOAD,2022-10-04 14:00:01,15.73214103,0.0004154,53.2141,288.0943,357.2677,84.3138,-0.00038515,-0.00054392,0.0,0 STARLINK-4582,1 53569U 22101AU  22277.58334491 -.00054392  00000-0 -38515-3 0  9991,2 53569  53.2141 288.0943 0004154 357.2677  84.3138 15.73214103  7237,6727.855,91.532,352.515,346.925,0.0
53569.0,STARLINK-4582,PAYLOAD,2022-10-04 22:00:00,15.73145328,0.0003849,53.214,286.443,356.42900000000014,174.0829,0.00077676,0.00109598,0.0,0 STARLINK-4582,1 53569U 22101AU  22277.91667824  .00109598  00000-0  77676-3 0  9995,2 53569  53.2140 286.4430 0003849 356.4290 174.0829 15.73145328  1309,6728.051,91.536,352.506,347.326,0.0
53569.0,STARLINK-4582,PAYLOAD,2022-10-05 06:00:00,15.73227929,0.0004006,53.2137,284.7952,359.3879,260.0353,-0.00059329,-0.00083213,0.0,0 STARLINK-4582,1 53569U 22101AU  22278.25001157 -.00083213  00000-0 -59329-3 0  9996,2 53569  53.2137 284.7952 0004006 359.3879 260.0353 15.73227929  7331,6727.816,91.532,352.376,346.985,0.0
53569.0,STARLINK-4582,PAYLOAD,2022-10-05 14:00:01,15.73174963,0.0004128,53.213,283.1458,359.9815,348.4029,-0.00011179,-0.00016274,0.0,0 STARLINK-4582,1 53569U 22101AU  22278.58335648 -.00016274  00000-0 -11179-3 0  9991,2 53569  53.2130 283.1458 0004128 359.9815 348.4029 15.73174963  1300,6727.967,91.535,352.6090000000001,347.05400000000014,0.0
53569.0,STARLINK-4582,PAYLOAD,2022-10-05 22:00:00,15.7311555,0.0003796,53.2131,281.4944,2.8857,74.3378,0.00086562,0.00122235,0.0,0 STARLINK-4582,1 53569U 22101AU  22278.91667824  .00122235  00000-0  86562-3 0  9993,2 53569  53.2131 281.4944 0003796   2.8857  74.3378 15.73115550  7442,6728.136,91.538,352.555,347.44699999999995,0.0
53569.0,STARLINK-4582,PAYLOAD,2022-10-06 14:00:01,15.73246068,0.0004035,53.213,278.197,0.7025,254.3266,-0.00024674,-0.00035194,0.0,0 STARLINK-4582,1 53569U 22101AU  22279.58334491 -.00035194  00000-0 -24674-3 0  9993,2 53569  53.2130 278.1970 0004035   0.7025 254.3266 15.73246068  1308,6727.764,91.531,352.343,346.914,0.0
53569.0,STARLINK-4582,PAYLOAD,2022-10-06 22:42:55,15.73216437,0.0003771999999999,53.2139,276.3956,2.661,150.1659,0.00020653,0.0002849,0.0,0 STARLINK-4582,1 53569U 22101AU  22279.94646991  .00028490  00000-0  20653-3 0  9996,2 53569  53.2139 276.3956 0003772   2.6610 150.1659 15.73216437  7604,6727.848000000001,91.532,352.251,347.176,0.0
53569.0,STARLINK-4582,PAYLOAD,2022-10-07 06:00:00,15.73335273,0.0004081,53.2148,274.8934,3.2464,69.6561,-0.0018808,-0.0025832,0.0,0 STARLINK-4582,1 53569U 22101AU  22280.25001157 -.00258320  00000-0 -18808-2 0  9998,2 53569  53.2148 274.8934 0004081   3.2464  69.6561 15.73335273  7652,6727.51,91.525,352.12,346.629,0.0
53569.0,STARLINK-4582,PAYLOAD,2022-10-07 14:00:01,15.73234904,0.0004048,53.2121,273.2478,1.3338,160.555,-0.00037738,-0.00053359,0.0,0 STARLINK-4582,1 53569U 22101AU  22280.58334491 -.00053359  00000-0 -37738-3 0  9993,2 53569  53.2121 273.2478 0004048   1.3338 160.5550 15.73234904  1305,6727.795999999999,91.531,352.384,346.93699999999984,0.0
53569.0,STARLINK-4582,PAYLOAD,2022-10-07 22:00:00,15.73208797,0.0003728999999999,53.2123,271.5964,5.0159,245.8204,1.1539e-05,9.96e-06,0.0,0 STARLINK-4582,1 53569U 22101AU  22280.91667824  .00000996  00000-0  11539-4 0  9998,2 53569  53.2123 271.5964 0003729   5.0159 245.8204 15.73208797  1309,6727.87,91.533,352.244,347.226,0.0
53569.0,STARLINK-4582,PAYLOAD,2022-10-08 06:00:00,15.73203167,0.0003926,53.2125,269.9486,5.9276,333.8473,-0.0003783,-0.00053413,0.0,0 STARLINK-4582,1 53569U 22101AU  22281.25001157 -.00053413  00000-0 -37830-3 0  9992,2 53569  53.2125 269.9486 0003926   5.9276 333.8473 15.73203167  7802,6727.886,91.533,352.39300000000014,347.11,0.0
53569.0,STARLINK-4582,PAYLOAD,2022-10-08 14:00:01,15.73188708,0.000396,53.2125,268.2985,4.4988,64.1835,-0.00045096,-0.00063439,0.0,0 STARLINK-4582,1 53569U 22101AU  22281.58334491 -.00063439  00000-0 -45096-3 0  9990,2 53569  53.2125 268.2985 0003960   4.4988  64.1835 15.73188708  1308,6727.927,91.534,352.457,347.12800000000016,0.0
53569.0,STARLINK-4582,PAYLOAD,2022-10-08 22:00:00,15.73137429,0.0003717,53.2127,266.6473,8.1257,149.451,0.00090839,0.0012852,0.0,0 STARLINK-4582,1 53569U 22101AU  22281.91667824  .00128520  00000-0  90839-3 0  9992,2 53569  53.2127 266.6473 0003717   8.1257 149.4510 15.73137429  7918,6728.074000000001,91.537,352.439,347.43800000000016,0.0
53569.0,STARLINK-4582,PAYLOAD,2022-10-09 06:00:00,15.73225761,0.0003935,53.2124,264.9997,7.4246,239.0594,-0.00018745,-0.00026889,0.0,0 STARLINK-4582,1 53569U 22101AU  22282.25001157 -.00026889  00000-0 -18745-3 0  9994,2 53569  53.2124 264.9997 0003935   7.4246 239.0594 15.73225761  7969,6727.821999999999,91.532,352.334,347.039,0.0
53569.0,STARLINK-4582,PAYLOAD,2022-10-09 14:00:01,15.73261317,0.0003828,53.212,263.3493,4.7284,330.7035,-0.00030492,-0.0004333,0.0,0 STARLINK-4582,1 53569U 22101AU  22282.58334491 -.00043330  00000-0 -30492-3 0  9993,2 53569  53.2120 263.3493 0003828   4.7284 330.7035 15.73261317  1300,6727.72,91.53,352.161,347.01,0.0
53569.0,STARLINK-4582,PAYLOAD,2022-10-09 22:00:00,15.73248485,0.0003556,53.2124,261.6981,5.5135,58.8991,-0.00011106,-0.00016219,0.0,0 STARLINK-4582,1 53569U 22101AU  22282.91667824 -.00016219  00000-0 -11106-3 0  9996,2 53569  53.2124 261.6981 0003556   5.5135  58.8991 15.73248485  1309,6727.757,91.53,352.014,347.23,0.0
53569.0,STARLINK-4582,PAYLOAD,2022-10-10 14:00:01,15.7323517,0.0003874,53.2147,258.3956,5.6904,236.6259,-0.001497,-0.00206088,0.0,0 STARLINK-4582,1 53569U 22101AU  22283.58334491 -.00206088  00000-0 -14970-2 0  9997,2 53569  53.2147 258.3956 0003874   5.6904 236.6259 15.73235170  1307,6727.795,91.531,352.266,347.05400000000014,0.0
53569.0,STARLINK-4582,PAYLOAD,2022-10-10 22:00:01,15.73100502,0.0003921,53.2166,256.7412,11.2524,320.0067,0.0011718,0.00166463,0.0,0 STARLINK-4582,1 53569U 22101AU  22283.91668981  .00166463  00000-0  11718-2 0  9995,2 53569  53.2166 256.7412 0003921  11.2524 320.0067 15.73100502  1306,6728.179,91.539,352.682,347.406,0.0
53569.0,STARLINK-4582,PAYLOAD,2022-10-11 14:00:01,15.73128086,0.0003357,53.2164,253.4429,7.1579,141.8884,0.00087547,0.00123711,0.0,0 STARLINK-4582,1 53569U 22101AU  22284.58334491  .00123711  00000-0  87547-3 0  9998,2 53569  53.2164 253.4429 0003357   7.1579 141.8884 15.73128086  1306,6728.1,91.537,352.224,347.707,0.0
53569.0,STARLINK-4582,PAYLOAD,2022-10-11 22:00:00,15.73183487,0.000334,53.2126,251.8004,6.2812,231.5981,0.00061377,0.00086364,0.0,0 STARLINK-4582,1 53569U 22101AU  22284.91667824  .00086364  00000-0  61377-3 0  9999,2 53569  53.2126 251.8004 0003340   6.2812 231.5981 15.73183487  8383,6727.941999999999,91.534,352.05400000000014,347.56,0.0
53569.0,STARLINK-4582,PAYLOAD,2022-10-12 14:00:01,15.73240048,0.00036,53.2151,248.4976,5.9491,49.8711,-0.00066809,-0.0009355,0.0,0 STARLINK-4582,1 53569U 22101AU  22285.58334491 -.00093550  00000-0 -66809-3 0  9996,2 53569  53.2151 248.4976 0003600   5.9491  49.8711 15.73240048  8499,6727.781,91.531,352.0680000000001,347.224,0.0
53569.0,STARLINK-4582,PAYLOAD,2022-10-12 22:00:00,15.73192847,0.0003552,53.2168,246.8436,10.0604,134.6922,0.0001393,0.0001896999999999,0.0,0 STARLINK-4582,1 53569U 22101AU  22285.91667824  .00018970  00000-0  13930-3 0  9990,2 53569  53.2168 246.8436 0003552  10.0604 134.6922 15.73192847  1302,6727.916,91.534,352.17,347.391,0.0
